OBJECT_NAME,OBJECT_ID,EPOCH,MEAN_MOTION,ECCENTRICITY,INCLINATION,RA_OF_ASC_NODE,ARG_OF_PERICENTER,MEAN_ANOMALY,EPHEMERIS_TYPE,CLASSIFICATION_TYPE,NORAD_CAT_ID,ELEMENT_SET_NO,REV_AT_EPOCH,BSTAR,MEAN_MOTION_DOT,MEAN_MOTION_DDOT
PEGASUS R/B,1993-009C,2024-07-07T10:02:20.261184,14.55549653,.0046022,24.9761,230.0097,23.1554,337.1020,0,U,22491,999,66600,.22179E-3,.1198E-4,0
EYESAT A (AO-27),1993-061C,2024-07-07T09:38:53.290752,14.30517186,.0008818,98.7873,242.3874,27.2159,332.9483,0,U,22825,999,60550,.84055E-4,.174E-5,0
ITAMSAT (IO-26),1993-061D,2024-07-07T14:02:18.354624,14.30900942,.000904,98.7820,242.4365,11.8119,348.3273,0,U,22826,999,60581,.96337E-4,.208E-5,0
RADIO ROSTO (RS-15),1994-085A,2024-07-07T20:48:52.168608,11.27577645,.0149676,64.8187,10.3244,139.8152,221.3952,0,U,23439,999,21621,-.23591E-5,-.43E-6,0
JAS-2 (FO-29),1996-046B,2024-07-07T19:44:58.088256,13.53191969,.0350753,98.5803,121.7739,134.6880,228.3410,0,U,24278,999,37747,.28959E-4,-.4E-7,0
FORTE,1997-047A,2024-07-08T04:41:27.743136,14.27168759,.0021784,69.9522,174.6745,171.6244,188.5246,0,U,24920,999,39776,.14406E-3,.295E-5,0
NOAA 15,1998-030A,2024-07-08T03:17:32.249184,14.26621635,.0009085,98.5674,216.8257,262.4140,97.6009,0,U,25338,999,36042,.14224E-3,.3E-5,0
TECHSAT 1B (GO-32),1998-043D,2024-07-07T21:27:31.913568,14.24065791,.0002397,98.9225,156.9273,94.3961,265.7491,0,U,25397,999,35058,.80614E-4,.139E-5,0
ORSTED,1999-008B,2024-07-07T13:03:33.122304,14.50003612,.0133533,96.4694,249.7037,301.8442,56.9815,0,U,25635,999,33905,.13826E-3,.566E-5,0
LANDSAT 7,1999-020A,2024-07-08T04:29:19.785984,14.60735791,.0001186,97.8865,215.9838,90.0658,358.9255,0,U,25682,999,34226,.14647E-3,.671E-5,0
ORBCOMM FM36,1999-065E,2024-07-07T14:34:54.084288,14.35836034,.0002897,45.0403,281.2385,326.2783,33.7881,0,U,25984,999,28544,.5299E-3,.1407E-4,0
DMSP 5D-3 F15 (USA 147),1999-067A,2024-07-07T20:17:25.177920,14.17035466,.0009274,99.0642,205.6772,212.4161,272.3326,0,U,25991,999,27018,.15693E-3,.269E-5,0
OPAL (OO-38),2000-004C,2024-07-08T04:20:59.074656,14.37369908,.0035567,100.2167,344.1487,236.8753,122.9012,0,U,26063,999,28159,.10397E-3,.253E-5,0
IMAGE,2000-017A,2024-07-04T13:49:55.801056,1.68651555,.7535214,94.2236,303.7939,13.7408,358.5165,0,U,26113,999,14949,-.86894E-2,-.173E-5,0
CLUSTER II-FM7 (SAMBA),2000-041A,2024-07-09T22:44:04.684416,0.44199929,.7548772,139.5811,359.0182,214.0103,359.1051,0,U,26410,999,1714,0,.983E-5,0
CLUSTER II-FM6 (SALSA),2000-041B,2024-07-09T20:30:27.973152,0.44240942,.9046768,149.0511,29.7120,245.3837,359.2005,0,U,26411,999,1720,0,.4802E-4,0
CLUSTER II-FM5 (RUMBA),2000-045A,2024-07-09T22:19:19.786368,0.44219058,.8585577,150.9779,22.2493,237.8575,359.1313,0,U,26463,999,1707,0,.3641E-4,0
CLUSTER II-FM8 (TANGO),2000-045B,2024-07-09T22:44:10.020480,0.44222023,.7544856,139.6090,359.0437,214.0345,359.1173,0,U,26464,999,1715,0,.984E-5,0
MEGSAT-1,2000-057B,2024-07-08T05:20:35.428128,14.97319246,.0023291,64.5521,168.8085,229.9856,129.9214,0,U,26546,999,29125,.3006E-3,.3354E-4,0
PHASE 3D (AO-40),2000-072B,2024-07-06T16:10:44.090688,1.25590236,.797427,6.4554,98.7963,314.2314,3.7004,0,U,26609,999,10858,0,-.94E-6,0
ODIN,2001-007A,2024-07-07T13:45:25.367328,15.23488187,.0007751,97.4782,204.6734,190.1588,169.9494,0,U,26702,999,28000,.74514E-3,.17746E-3,0
OMNI-M1,2001-026A,2024-07-07T02:37:01.193376,3.92402684,.0013192,44.9638,48.4942,234.9539,124.9733,0,U,26857,999,17770,0,-.5E-6,0
PCSAT (NO-44),2001-043C,2024-07-07T12:59:45.861792,14.31270318,.0007464,67.0515,278.9678,277.0414,82.9838,0,U,26931,999,18886,.12974E-3,.261E-5,0
PROBA-1,2001-049B,2024-07-08T04:37:11.399520,15.01318930,.0058267,97.9179,167.1602,354.4598,5.5974,0,U,26958,999,23704,.27417E-3,.3591E-4,0
SPOT 5,2002-021A,2024-07-08T04:38:58.214112,14.53349904,.0131498,98.0871,245.8644,317.8162,41.2973,0,U,27421,999,15983,.11607E-3,.489E-5,0
FENGYUN 1D,2002-024B,2024-07-08T00:43:02.638560,14.09995026,.0016454,99.0527,228.7069,76.4074,283.8928,0,U,27431,999,13960,.1122E-3,.153E-5,0
SAUDISAT 1C (SO-50),2002-058C,2024-07-07T21:22:04.635552,14.79104287,.0025817,64.5540,157.9068,101.6088,258.7916,0,U,27607,999,15959,.27661E-3,.1924E-4,0
CORIOLIS,2003-001A,2024-07-07T12:39:28.953216,14.19495206,.0015335,98.7124,196.4210,96.0919,264.2005,0,U,27640,999,11352,.11225E-3,.193E-5,0
CUTE-1 (CO-55),2003-031E,2024-07-07T23:16:05.675232,14.23304231,.0011051,98.6764,196.7086,85.3516,274.8924,0,U,27844,999,9077,.24953E-3,.522E-5,0
CUBESAT XI-IV (CO-57),2003-031J,2024-07-07T23:34:20.951616,14.22739886,.0010918,98.6795,196.9542,99.5118,260.7295,0,U,27848,999,9054,.21555E-3,.44E-5,0
